<?xml version="1.0" encoding="UTF-8"?>
<gpx version="1.1" creator="ios/Tools/make-route.py" xmlns="http://www.topografix.com/GPX/1/1">
  <trk><name>drive-park-walk</name><trkseg>
    <trkpt lat="42.352085" lon="-71.070019"><time>2026-09-15T14:30:00Z</time><type>drive</type></trkpt>
    <trkpt lat="42.352054" lon="-71.070134"><time>2026-09-15T14:30:01Z</time><type>drive</type></trkpt>
    <trkpt lat="42.352023" lon="-71.070248"><time>2026-09-15T14:30:02Z</time><type>drive</type></trkpt>
    <trkpt lat="42.351992" lon="-71.070362"><time>2026-09-15T14:30:03Z</time><type>drive</type></trkpt>
    <trkpt lat="42.351961" lon="-71.070476"><time>2026-09-15T14:30:04Z</time><type>drive</type></trkpt>
    <trkpt lat="42.351930" lon="-71.070590"><time>2026-09-15T14:30:05Z</time><type>drive</type></trkpt>
    <trkpt lat="42.351899" lon="-71.070705"><time>2026-09-15T14:30:06Z</time><type>drive</type></trkpt>
    <trkpt lat="42.351868" lon="-71.070819"><time>2026-09-15T14:30:07Z</time><type>drive</type></trkpt>
    <trkpt lat="42.351837" lon="-71.070933"><time>2026-09-15T14:30:08Z</time><type>drive</type></trkpt>
    <trkpt lat="42.351806" lon="-71.071047"><time>2026-09-15T14:30:09Z</time><type>drive</type></trkpt>
    <trkpt lat="42.351775" lon="-71.071161"><time>2026-09-15T14:30:10Z</time><type>drive</type></trkpt>
    <trkpt lat="42.351744" lon="-71.071276"><time>2026-09-15T14:30:11Z</time><type>drive</type></trkpt>
    <trkpt lat="42.351713" lon="-71.071390"><time>2026-09-15T14:30:12Z</time><type>drive</type></trkpt>
    <trkpt lat="42.351682" lon="-71.071504"><time>2026-09-15T14:30:13Z</time><type>drive</type></trkpt>
    <trkpt lat="42.351651" lon="-71.071618"><time>2026-09-15T14:30:14Z</time><type>drive</type></trkpt>
    <trkpt lat="42.351620" lon="-71.071732"><time>2026-09-15T14:30:15Z</time><type>drive</type></trkpt>
    <trkpt lat="42.351589" lon="-71.071846"><time>2026-09-15T14:30:16Z</time><type>drive</type></trkpt>
    <trkpt lat="42.351558" lon="-71.071961"><time>2026-09-15T14:30:17Z</time><type>drive</type></trkpt>
    <trkpt lat="42.351527" lon="-71.072075"><time>2026-09-15T14:30:18Z</time><type>drive</type></trkpt>
    <trkpt lat="42.351496" lon="-71.072189"><time>2026-09-15T14:30:19Z</time><type>drive</type></trkpt>
    <trkpt lat="42.351464" lon="-71.072303"><time>2026-09-15T14:30:20Z</time><type>light</type></trkpt>
    <trkpt lat="42.351466" lon="-71.072303"><time>2026-09-15T14:30:21Z</time><type>light</type></trkpt>
    <trkpt lat="42.351464" lon="-71.072303"><time>2026-09-15T14:30:22Z</time><type>light</type></trkpt>
    <trkpt lat="42.351466" lon="-71.072303"><time>2026-09-15T14:30:23Z</time><type>light</type></trkpt>
    <trkpt lat="42.351464" lon="-71.072303"><time>2026-09-15T14:30:24Z</time><type>light</type></trkpt>
    <trkpt lat="42.351466" lon="-71.072303"><time>2026-09-15T14:30:25Z</time><type>light</type></trkpt>
    <trkpt lat="42.351464" lon="-71.072303"><time>2026-09-15T14:30:26Z</time><type>light</type></trkpt>
    <trkpt lat="42.351466" lon="-71.072303"><time>2026-09-15T14:30:27Z</time><type>light</type></trkpt>
    <trkpt lat="42.351464" lon="-71.072303"><time>2026-09-15T14:30:28Z</time><type>light</type></trkpt>
    <trkpt lat="42.351466" lon="-71.072303"><time>2026-09-15T14:30:29Z</time><type>light</type></trkpt>
    <trkpt lat="42.351464" lon="-71.072303"><time>2026-09-15T14:30:30Z</time><type>light</type></trkpt>
    <trkpt lat="42.351466" lon="-71.072303"><time>2026-09-15T14:30:31Z</time><type>light</type></trkpt>
    <trkpt lat="42.351464" lon="-71.072303"><time>2026-09-15T14:30:32Z</time><type>light</type></trkpt>
    <trkpt lat="42.351466" lon="-71.072303"><time>2026-09-15T14:30:33Z</time><type>light</type></trkpt>
    <trkpt lat="42.351464" lon="-71.072303"><time>2026-09-15T14:30:34Z</time><type>light</type></trkpt>
    <trkpt lat="42.351466" lon="-71.072303"><time>2026-09-15T14:30:35Z</time><type>light</type></trkpt>
    <trkpt lat="42.351464" lon="-71.072303"><time>2026-09-15T14:30:36Z</time><type>light</type></trkpt>
    <trkpt lat="42.351466" lon="-71.072303"><time>2026-09-15T14:30:37Z</time><type>light</type></trkpt>
    <trkpt lat="42.351464" lon="-71.072303"><time>2026-09-15T14:30:38Z</time><type>light</type></trkpt>
    <trkpt lat="42.351466" lon="-71.072303"><time>2026-09-15T14:30:39Z</time><type>light</type></trkpt>
    <trkpt lat="42.351464" lon="-71.072303"><time>2026-09-15T14:30:40Z</time><type>light</type></trkpt>
    <trkpt lat="42.351466" lon="-71.072303"><time>2026-09-15T14:30:41Z</time><type>light</type></trkpt>
    <trkpt lat="42.351464" lon="-71.072303"><time>2026-09-15T14:30:42Z</time><type>light</type></trkpt>
    <trkpt lat="42.351466" lon="-71.072303"><time>2026-09-15T14:30:43Z</time><type>light</type></trkpt>
    <trkpt lat="42.351464" lon="-71.072303"><time>2026-09-15T14:30:44Z</time><type>light</type></trkpt>
    <trkpt lat="42.351466" lon="-71.072303"><time>2026-09-15T14:30:45Z</time><type>light</type></trkpt>
    <trkpt lat="42.351464" lon="-71.072303"><time>2026-09-15T14:30:46Z</time><type>light</type></trkpt>
    <trkpt lat="42.351466" lon="-71.072303"><time>2026-09-15T14:30:47Z</time><type>light</type></trkpt>
    <trkpt lat="42.351464" lon="-71.072303"><time>2026-09-15T14:30:48Z</time><type>light</type></trkpt>
    <trkpt lat="42.351466" lon="-71.072303"><time>2026-09-15T14:30:49Z</time><type>light</type></trkpt>
    <trkpt lat="42.351465" lon="-71.072303"><time>2026-09-15T14:30:50Z</time><type>drive</type></trkpt>
    <trkpt lat="42.351434" lon="-71.072417"><time>2026-09-15T14:30:51Z</time><type>drive</type></trkpt>
    <trkpt lat="42.351403" lon="-71.072532"><time>2026-09-15T14:30:52Z</time><type>drive</type></trkpt>
    <trkpt lat="42.351372" lon="-71.072646"><time>2026-09-15T14:30:53Z</time><type>drive</type></trkpt>
    <trkpt lat="42.351341" lon="-71.072760"><time>2026-09-15T14:30:54Z</time><type>drive</type></trkpt>
    <trkpt lat="42.351310" lon="-71.072874"><time>2026-09-15T14:30:55Z</time><type>drive</type></trkpt>
    <trkpt lat="42.351279" lon="-71.072988"><time>2026-09-15T14:30:56Z</time><type>drive</type></trkpt>
    <trkpt lat="42.351248" lon="-71.073103"><time>2026-09-15T14:30:57Z</time><type>drive</type></trkpt>
    <trkpt lat="42.351217" lon="-71.073217"><time>2026-09-15T14:30:58Z</time><type>drive</type></trkpt>
    <trkpt lat="42.351186" lon="-71.073331"><time>2026-09-15T14:30:59Z</time><type>drive</type></trkpt>
    <trkpt lat="42.351155" lon="-71.073445"><time>2026-09-15T14:31:00Z</time><type>drive</type></trkpt>
    <trkpt lat="42.351124" lon="-71.073559"><time>2026-09-15T14:31:01Z</time><type>drive</type></trkpt>
    <trkpt lat="42.351093" lon="-71.073674"><time>2026-09-15T14:31:02Z</time><type>drive</type></trkpt>
    <trkpt lat="42.351062" lon="-71.073788"><time>2026-09-15T14:31:03Z</time><type>drive</type></trkpt>
    <trkpt lat="42.351031" lon="-71.073902"><time>2026-09-15T14:31:04Z</time><type>drive</type></trkpt>
    <trkpt lat="42.351000" lon="-71.074016"><time>2026-09-15T14:31:05Z</time><type>drive</type></trkpt>
    <trkpt lat="42.350969" lon="-71.074130"><time>2026-09-15T14:31:06Z</time><type>drive</type></trkpt>
    <trkpt lat="42.350938" lon="-71.074245"><time>2026-09-15T14:31:07Z</time><type>drive</type></trkpt>
    <trkpt lat="42.350907" lon="-71.074359"><time>2026-09-15T14:31:08Z</time><type>drive</type></trkpt>
    <trkpt lat="42.350876" lon="-71.074473"><time>2026-09-15T14:31:09Z</time><type>drive</type></trkpt>
    <trkpt lat="42.350845" lon="-71.074587"><time>2026-09-15T14:31:10Z</time><type>drive</type></trkpt>
    <trkpt lat="42.350814" lon="-71.074701"><time>2026-09-15T14:31:11Z</time><type>drive</type></trkpt>
    <trkpt lat="42.350783" lon="-71.074815"><time>2026-09-15T14:31:12Z</time><type>drive</type></trkpt>
    <trkpt lat="42.350752" lon="-71.074930"><time>2026-09-15T14:31:13Z</time><type>drive</type></trkpt>
    <trkpt lat="42.350721" lon="-71.075044"><time>2026-09-15T14:31:14Z</time><type>drive</type></trkpt>
    <trkpt lat="42.350690" lon="-71.075158"><time>2026-09-15T14:31:15Z</time><type>drive</type></trkpt>
    <trkpt lat="42.350659" lon="-71.075272"><time>2026-09-15T14:31:16Z</time><type>drive</type></trkpt>
    <trkpt lat="42.350628" lon="-71.075386"><time>2026-09-15T14:31:17Z</time><type>drive</type></trkpt>
    <trkpt lat="42.350597" lon="-71.075501"><time>2026-09-15T14:31:18Z</time><type>drive</type></trkpt>
    <trkpt lat="42.350566" lon="-71.075615"><time>2026-09-15T14:31:19Z</time><type>drive</type></trkpt>
    <trkpt lat="42.350535" lon="-71.075729"><time>2026-09-15T14:31:20Z</time><type>drive</type></trkpt>
    <trkpt lat="42.350504" lon="-71.075843"><time>2026-09-15T14:31:21Z</time><type>drive</type></trkpt>
    <trkpt lat="42.350473" lon="-71.075957"><time>2026-09-15T14:31:22Z</time><type>drive</type></trkpt>
    <trkpt lat="42.350442" lon="-71.076072"><time>2026-09-15T14:31:23Z</time><type>drive</type></trkpt>
    <trkpt lat="42.350411" lon="-71.076186"><time>2026-09-15T14:31:24Z</time><type>drive</type></trkpt>
    <trkpt lat="42.350381" lon="-71.076300"><time>2026-09-15T14:31:25Z</time><type>park</type></trkpt>
    <trkpt lat="42.350379" lon="-71.076300"><time>2026-09-15T14:31:26Z</time><type>park</type></trkpt>
    <trkpt lat="42.350381" lon="-71.076300"><time>2026-09-15T14:31:27Z</time><type>park</type></trkpt>
    <trkpt lat="42.350379" lon="-71.076300"><time>2026-09-15T14:31:28Z</time><type>park</type></trkpt>
    <trkpt lat="42.350381" lon="-71.076300"><time>2026-09-15T14:31:29Z</time><type>park</type></trkpt>
    <trkpt lat="42.350379" lon="-71.076300"><time>2026-09-15T14:31:30Z</time><type>park</type></trkpt>
    <trkpt lat="42.350381" lon="-71.076300"><time>2026-09-15T14:31:31Z</time><type>park</type></trkpt>
    <trkpt lat="42.350379" lon="-71.076300"><time>2026-09-15T14:31:32Z</time><type>park</type></trkpt>
    <trkpt lat="42.350381" lon="-71.076300"><time>2026-09-15T14:31:33Z</time><type>park</type></trkpt>
    <trkpt lat="42.350379" lon="-71.076300"><time>2026-09-15T14:31:34Z</time><type>park</type></trkpt>
    <trkpt lat="42.350371" lon="-71.076334"><time>2026-09-15T14:31:35Z</time><type>walk_away</type></trkpt>
    <trkpt lat="42.350361" lon="-71.076369"><time>2026-09-15T14:31:36Z</time><type>walk_away</type></trkpt>
    <trkpt lat="42.350352" lon="-71.076403"><time>2026-09-15T14:31:37Z</time><type>walk_away</type></trkpt>
    <trkpt lat="42.350343" lon="-71.076437"><time>2026-09-15T14:31:38Z</time><type>walk_away</type></trkpt>
    <trkpt lat="42.350334" lon="-71.076471"><time>2026-09-15T14:31:39Z</time><type>walk_away</type></trkpt>
    <trkpt lat="42.350324" lon="-71.076506"><time>2026-09-15T14:31:40Z</time><type>walk_away</type></trkpt>
    <trkpt lat="42.350315" lon="-71.076540"><time>2026-09-15T14:31:41Z</time><type>walk_away</type></trkpt>
    <trkpt lat="42.350306" lon="-71.076574"><time>2026-09-15T14:31:42Z</time><type>walk_away</type></trkpt>
    <trkpt lat="42.350296" lon="-71.076608"><time>2026-09-15T14:31:43Z</time><type>walk_away</type></trkpt>
    <trkpt lat="42.350287" lon="-71.076643"><time>2026-09-15T14:31:44Z</time><type>walk_away</type></trkpt>
    <trkpt lat="42.350278" lon="-71.076677"><time>2026-09-15T14:31:45Z</time><type>walk_away</type></trkpt>
    <trkpt lat="42.350268" lon="-71.076711"><time>2026-09-15T14:31:46Z</time><type>walk_away</type></trkpt>
    <trkpt lat="42.350259" lon="-71.076745"><time>2026-09-15T14:31:47Z</time><type>walk_away</type></trkpt>
    <trkpt lat="42.350250" lon="-71.076780"><time>2026-09-15T14:31:48Z</time><type>walk_away</type></trkpt>
    <trkpt lat="42.350241" lon="-71.076814"><time>2026-09-15T14:31:49Z</time><type>walk_away</type></trkpt>
    <trkpt lat="42.350231" lon="-71.076848"><time>2026-09-15T14:31:50Z</time><type>walk_away</type></trkpt>
    <trkpt lat="42.350222" lon="-71.076882"><time>2026-09-15T14:31:51Z</time><type>walk_away</type></trkpt>
    <trkpt lat="42.350213" lon="-71.076917"><time>2026-09-15T14:31:52Z</time><type>walk_away</type></trkpt>
    <trkpt lat="42.350203" lon="-71.076951"><time>2026-09-15T14:31:53Z</time><type>walk_away</type></trkpt>
    <trkpt lat="42.350194" lon="-71.076985"><time>2026-09-15T14:31:54Z</time><type>walk_away</type></trkpt>
    <trkpt lat="42.350185" lon="-71.077019"><time>2026-09-15T14:31:55Z</time><type>walk_away</type></trkpt>
    <trkpt lat="42.350175" lon="-71.077054"><time>2026-09-15T14:31:56Z</time><type>walk_away</type></trkpt>
    <trkpt lat="42.350166" lon="-71.077088"><time>2026-09-15T14:31:57Z</time><type>walk_away</type></trkpt>
    <trkpt lat="42.350157" lon="-71.077122"><time>2026-09-15T14:31:58Z</time><type>walk_away</type></trkpt>
    <trkpt lat="42.350148" lon="-71.077156"><time>2026-09-15T14:31:59Z</time><type>walk_away</type></trkpt>
    <trkpt lat="42.350138" lon="-71.077191"><time>2026-09-15T14:32:00Z</time><type>walk_away</type></trkpt>
    <trkpt lat="42.350129" lon="-71.077225"><time>2026-09-15T14:32:01Z</time><type>walk_away</type></trkpt>
    <trkpt lat="42.350120" lon="-71.077259"><time>2026-09-15T14:32:02Z</time><type>walk_away</type></trkpt>
    <trkpt lat="42.350110" lon="-71.077293"><time>2026-09-15T14:32:03Z</time><type>walk_away</type></trkpt>
    <trkpt lat="42.350101" lon="-71.077328"><time>2026-09-15T14:32:04Z</time><type>walk_away</type></trkpt>
    <trkpt lat="42.350092" lon="-71.077362"><time>2026-09-15T14:32:05Z</time><type>walk_away</type></trkpt>
    <trkpt lat="42.350082" lon="-71.077396"><time>2026-09-15T14:32:06Z</time><type>walk_away</type></trkpt>
    <trkpt lat="42.350073" lon="-71.077431"><time>2026-09-15T14:32:07Z</time><type>walk_away</type></trkpt>
    <trkpt lat="42.350064" lon="-71.077465"><time>2026-09-15T14:32:08Z</time><type>walk_away</type></trkpt>
    <trkpt lat="42.350055" lon="-71.077499"><time>2026-09-15T14:32:09Z</time><type>walk_away</type></trkpt>
    <trkpt lat="42.350045" lon="-71.077533"><time>2026-09-15T14:32:10Z</time><type>walk_away</type></trkpt>
    <trkpt lat="42.350036" lon="-71.077568"><time>2026-09-15T14:32:11Z</time><type>walk_away</type></trkpt>
    <trkpt lat="42.350027" lon="-71.077602"><time>2026-09-15T14:32:12Z</time><type>walk_away</type></trkpt>
    <trkpt lat="42.350017" lon="-71.077636"><time>2026-09-15T14:32:13Z</time><type>walk_away</type></trkpt>
    <trkpt lat="42.350008" lon="-71.077670"><time>2026-09-15T14:32:14Z</time><type>walk_away</type></trkpt>
    <trkpt lat="42.349999" lon="-71.077705"><time>2026-09-15T14:32:15Z</time><type>walk_away</type></trkpt>
    <trkpt lat="42.349989" lon="-71.077739"><time>2026-09-15T14:32:16Z</time><type>walk_away</type></trkpt>
    <trkpt lat="42.349980" lon="-71.077773"><time>2026-09-15T14:32:17Z</time><type>walk_away</type></trkpt>
    <trkpt lat="42.349971" lon="-71.077807"><time>2026-09-15T14:32:18Z</time><type>walk_away</type></trkpt>
    <trkpt lat="42.349962" lon="-71.077842"><time>2026-09-15T14:32:19Z</time><type>walk_away</type></trkpt>
    <trkpt lat="42.349952" lon="-71.077876"><time>2026-09-15T14:32:20Z</time><type>walk_away</type></trkpt>
    <trkpt lat="42.349943" lon="-71.077910"><time>2026-09-15T14:32:21Z</time><type>walk_away</type></trkpt>
    <trkpt lat="42.349934" lon="-71.077944"><time>2026-09-15T14:32:22Z</time><type>walk_away</type></trkpt>
    <trkpt lat="42.349924" lon="-71.077979"><time>2026-09-15T14:32:23Z</time><type>walk_away</type></trkpt>
    <trkpt lat="42.349915" lon="-71.078013"><time>2026-09-15T14:32:24Z</time><type>walk_away</type></trkpt>
    <trkpt lat="42.349906" lon="-71.078047"><time>2026-09-15T14:32:25Z</time><type>walk_away</type></trkpt>
    <trkpt lat="42.349896" lon="-71.078081"><time>2026-09-15T14:32:26Z</time><type>walk_away</type></trkpt>
    <trkpt lat="42.349887" lon="-71.078116"><time>2026-09-15T14:32:27Z</time><type>walk_away</type></trkpt>
    <trkpt lat="42.349878" lon="-71.078150"><time>2026-09-15T14:32:28Z</time><type>walk_away</type></trkpt>
    <trkpt lat="42.349869" lon="-71.078184"><time>2026-09-15T14:32:29Z</time><type>walk_away</type></trkpt>
    <trkpt lat="42.349859" lon="-71.078218"><time>2026-09-15T14:32:30Z</time><type>walk_away</type></trkpt>
    <trkpt lat="42.349850" lon="-71.078253"><time>2026-09-15T14:32:31Z</time><type>walk_away</type></trkpt>
    <trkpt lat="42.349841" lon="-71.078287"><time>2026-09-15T14:32:32Z</time><type>walk_away</type></trkpt>
    <trkpt lat="42.349831" lon="-71.078321"><time>2026-09-15T14:32:33Z</time><type>walk_away</type></trkpt>
    <trkpt lat="42.349822" lon="-71.078355"><time>2026-09-15T14:32:34Z</time><type>walk_away</type></trkpt>
    <trkpt lat="42.349813" lon="-71.078390"><time>2026-09-15T14:32:35Z</time><type>walk_away</type></trkpt>
    <trkpt lat="42.349803" lon="-71.078424"><time>2026-09-15T14:32:36Z</time><type>walk_away</type></trkpt>
    <trkpt lat="42.349794" lon="-71.078458"><time>2026-09-15T14:32:37Z</time><type>walk_away</type></trkpt>
    <trkpt lat="42.349785" lon="-71.078492"><time>2026-09-15T14:32:38Z</time><type>walk_away</type></trkpt>
    <trkpt lat="42.349776" lon="-71.078527"><time>2026-09-15T14:32:39Z</time><type>walk_away</type></trkpt>
    <trkpt lat="42.349766" lon="-71.078561"><time>2026-09-15T14:32:40Z</time><type>walk_away</type></trkpt>
    <trkpt lat="42.349757" lon="-71.078595"><time>2026-09-15T14:32:41Z</time><type>walk_away</type></trkpt>
    <trkpt lat="42.349748" lon="-71.078630"><time>2026-09-15T14:32:42Z</time><type>walk_away</type></trkpt>
    <trkpt lat="42.349738" lon="-71.078664"><time>2026-09-15T14:32:43Z</time><type>walk_away</type></trkpt>
    <trkpt lat="42.349729" lon="-71.078698"><time>2026-09-15T14:32:44Z</time><type>walk_away</type></trkpt>
    <trkpt lat="42.349720" lon="-71.078732"><time>2026-09-15T14:32:45Z</time><type>walk_away</type></trkpt>
    <trkpt lat="42.349711" lon="-71.078767"><time>2026-09-15T14:32:46Z</time><type>walk_away</type></trkpt>
    <trkpt lat="42.349701" lon="-71.078801"><time>2026-09-15T14:32:47Z</time><type>walk_away</type></trkpt>
    <trkpt lat="42.349692" lon="-71.078835"><time>2026-09-15T14:32:48Z</time><type>walk_away</type></trkpt>
    <trkpt lat="42.349683" lon="-71.078869"><time>2026-09-15T14:32:49Z</time><type>walk_away</type></trkpt>
    <trkpt lat="42.349673" lon="-71.078904"><time>2026-09-15T14:32:50Z</time><type>walk_away</type></trkpt>
    <trkpt lat="42.349664" lon="-71.078938"><time>2026-09-15T14:32:51Z</time><type>walk_away</type></trkpt>
    <trkpt lat="42.349655" lon="-71.078972"><time>2026-09-15T14:32:52Z</time><type>walk_away</type></trkpt>
    <trkpt lat="42.349645" lon="-71.079006"><time>2026-09-15T14:32:53Z</time><type>walk_away</type></trkpt>
    <trkpt lat="42.349636" lon="-71.079041"><time>2026-09-15T14:32:54Z</time><type>walk_away</type></trkpt>
    <trkpt lat="42.349627" lon="-71.079075"><time>2026-09-15T14:32:55Z</time><type>walk_away</type></trkpt>
    <trkpt lat="42.349618" lon="-71.079109"><time>2026-09-15T14:32:56Z</time><type>walk_away</type></trkpt>
    <trkpt lat="42.349608" lon="-71.079143"><time>2026-09-15T14:32:57Z</time><type>walk_away</type></trkpt>
    <trkpt lat="42.349599" lon="-71.079178"><time>2026-09-15T14:32:58Z</time><type>walk_away</type></trkpt>
    <trkpt lat="42.349590" lon="-71.079212"><time>2026-09-15T14:32:59Z</time><type>walk_away</type></trkpt>
    <trkpt lat="42.349580" lon="-71.079246"><time>2026-09-15T14:33:00Z</time><type>walk_away</type></trkpt>
    <trkpt lat="42.349571" lon="-71.079280"><time>2026-09-15T14:33:01Z</time><type>walk_away</type></trkpt>
    <trkpt lat="42.349562" lon="-71.079315"><time>2026-09-15T14:33:02Z</time><type>walk_away</type></trkpt>
    <trkpt lat="42.349552" lon="-71.079349"><time>2026-09-15T14:33:03Z</time><type>walk_away</type></trkpt>
    <trkpt lat="42.349543" lon="-71.079383"><time>2026-09-15T14:33:04Z</time><type>walk_away</type></trkpt>
    <trkpt lat="42.349534" lon="-71.079417"><time>2026-09-15T14:33:05Z</time><type>walk_away</type></trkpt>
    <trkpt lat="42.349525" lon="-71.079452"><time>2026-09-15T14:33:06Z</time><type>walk_away</type></trkpt>
    <trkpt lat="42.349515" lon="-71.079486"><time>2026-09-15T14:33:07Z</time><type>walk_away</type></trkpt>
    <trkpt lat="42.349506" lon="-71.079520"><time>2026-09-15T14:33:08Z</time><type>walk_away</type></trkpt>
    <trkpt lat="42.349497" lon="-71.079554"><time>2026-09-15T14:33:09Z</time><type>walk_away</type></trkpt>
    <trkpt lat="42.349487" lon="-71.079589"><time>2026-09-15T14:33:10Z</time><type>walk_away</type></trkpt>
    <trkpt lat="42.349478" lon="-71.079623"><time>2026-09-15T14:33:11Z</time><type>walk_away</type></trkpt>
    <trkpt lat="42.349469" lon="-71.079657"><time>2026-09-15T14:33:12Z</time><type>walk_away</type></trkpt>
    <trkpt lat="42.349459" lon="-71.079692"><time>2026-09-15T14:33:13Z</time><type>walk_away</type></trkpt>
    <trkpt lat="42.349450" lon="-71.079726"><time>2026-09-15T14:33:14Z</time><type>walk_away</type></trkpt>
    <trkpt lat="42.349451" lon="-71.079726"><time>2026-09-15T14:33:15Z</time><type>far</type></trkpt>
    <trkpt lat="42.349449" lon="-71.079726"><time>2026-09-15T14:33:16Z</time><type>far</type></trkpt>
    <trkpt lat="42.349451" lon="-71.079726"><time>2026-09-15T14:33:17Z</time><type>far</type></trkpt>
    <trkpt lat="42.349449" lon="-71.079726"><time>2026-09-15T14:33:18Z</time><type>far</type></trkpt>
    <trkpt lat="42.349451" lon="-71.079726"><time>2026-09-15T14:33:19Z</time><type>far</type></trkpt>
    <trkpt lat="42.349449" lon="-71.079726"><time>2026-09-15T14:33:20Z</time><type>far</type></trkpt>
    <trkpt lat="42.349451" lon="-71.079726"><time>2026-09-15T14:33:21Z</time><type>far</type></trkpt>
    <trkpt lat="42.349449" lon="-71.079726"><time>2026-09-15T14:33:22Z</time><type>far</type></trkpt>
    <trkpt lat="42.349451" lon="-71.079726"><time>2026-09-15T14:33:23Z</time><type>far</type></trkpt>
    <trkpt lat="42.349449" lon="-71.079726"><time>2026-09-15T14:33:24Z</time><type>far</type></trkpt>
    <trkpt lat="42.349459" lon="-71.079692"><time>2026-09-15T14:33:25Z</time><type>walk_back</type></trkpt>
    <trkpt lat="42.349469" lon="-71.079657"><time>2026-09-15T14:33:26Z</time><type>walk_back</type></trkpt>
    <trkpt lat="42.349478" lon="-71.079623"><time>2026-09-15T14:33:27Z</time><type>walk_back</type></trkpt>
    <trkpt lat="42.349487" lon="-71.079589"><time>2026-09-15T14:33:28Z</time><type>walk_back</type></trkpt>
    <trkpt lat="42.349497" lon="-71.079554"><time>2026-09-15T14:33:29Z</time><type>walk_back</type></trkpt>
    <trkpt lat="42.349506" lon="-71.079520"><time>2026-09-15T14:33:30Z</time><type>walk_back</type></trkpt>
    <trkpt lat="42.349515" lon="-71.079486"><time>2026-09-15T14:33:31Z</time><type>walk_back</type></trkpt>
    <trkpt lat="42.349525" lon="-71.079452"><time>2026-09-15T14:33:32Z</time><type>walk_back</type></trkpt>
    <trkpt lat="42.349534" lon="-71.079417"><time>2026-09-15T14:33:33Z</time><type>walk_back</type></trkpt>
    <trkpt lat="42.349543" lon="-71.079383"><time>2026-09-15T14:33:34Z</time><type>walk_back</type></trkpt>
    <trkpt lat="42.349552" lon="-71.079349"><time>2026-09-15T14:33:35Z</time><type>walk_back</type></trkpt>
    <trkpt lat="42.349562" lon="-71.079315"><time>2026-09-15T14:33:36Z</time><type>walk_back</type></trkpt>
    <trkpt lat="42.349571" lon="-71.079280"><time>2026-09-15T14:33:37Z</time><type>walk_back</type></trkpt>
    <trkpt lat="42.349580" lon="-71.079246"><time>2026-09-15T14:33:38Z</time><type>walk_back</type></trkpt>
    <trkpt lat="42.349590" lon="-71.079212"><time>2026-09-15T14:33:39Z</time><type>walk_back</type></trkpt>
    <trkpt lat="42.349599" lon="-71.079178"><time>2026-09-15T14:33:40Z</time><type>walk_back</type></trkpt>
    <trkpt lat="42.349608" lon="-71.079143"><time>2026-09-15T14:33:41Z</time><type>walk_back</type></trkpt>
    <trkpt lat="42.349618" lon="-71.079109"><time>2026-09-15T14:33:42Z</time><type>walk_back</type></trkpt>
    <trkpt lat="42.349627" lon="-71.079075"><time>2026-09-15T14:33:43Z</time><type>walk_back</type></trkpt>
    <trkpt lat="42.349636" lon="-71.079041"><time>2026-09-15T14:33:44Z</time><type>walk_back</type></trkpt>
    <trkpt lat="42.349645" lon="-71.079006"><time>2026-09-15T14:33:45Z</time><type>walk_back</type></trkpt>
    <trkpt lat="42.349655" lon="-71.078972"><time>2026-09-15T14:33:46Z</time><type>walk_back</type></trkpt>
    <trkpt lat="42.349664" lon="-71.078938"><time>2026-09-15T14:33:47Z</time><type>walk_back</type></trkpt>
    <trkpt lat="42.349673" lon="-71.078904"><time>2026-09-15T14:33:48Z</time><type>walk_back</type></trkpt>
    <trkpt lat="42.349683" lon="-71.078869"><time>2026-09-15T14:33:49Z</time><type>walk_back</type></trkpt>
    <trkpt lat="42.349692" lon="-71.078835"><time>2026-09-15T14:33:50Z</time><type>walk_back</type></trkpt>
    <trkpt lat="42.349701" lon="-71.078801"><time>2026-09-15T14:33:51Z</time><type>walk_back</type></trkpt>
    <trkpt lat="42.349711" lon="-71.078767"><time>2026-09-15T14:33:52Z</time><type>walk_back</type></trkpt>
    <trkpt lat="42.349720" lon="-71.078732"><time>2026-09-15T14:33:53Z</time><type>walk_back</type></trkpt>
    <trkpt lat="42.349729" lon="-71.078698"><time>2026-09-15T14:33:54Z</time><type>walk_back</type></trkpt>
    <trkpt lat="42.349738" lon="-71.078664"><time>2026-09-15T14:33:55Z</time><type>walk_back</type></trkpt>
    <trkpt lat="42.349748" lon="-71.078630"><time>2026-09-15T14:33:56Z</time><type>walk_back</type></trkpt>
    <trkpt lat="42.349757" lon="-71.078595"><time>2026-09-15T14:33:57Z</time><type>walk_back</type></trkpt>
    <trkpt lat="42.349766" lon="-71.078561"><time>2026-09-15T14:33:58Z</time><type>walk_back</type></trkpt>
    <trkpt lat="42.349776" lon="-71.078527"><time>2026-09-15T14:33:59Z</time><type>walk_back</type></trkpt>
    <trkpt lat="42.349785" lon="-71.078492"><time>2026-09-15T14:34:00Z</time><type>walk_back</type></trkpt>
    <trkpt lat="42.349794" lon="-71.078458"><time>2026-09-15T14:34:01Z</time><type>walk_back</type></trkpt>
    <trkpt lat="42.349803" lon="-71.078424"><time>2026-09-15T14:34:02Z</time><type>walk_back</type></trkpt>
    <trkpt lat="42.349813" lon="-71.078390"><time>2026-09-15T14:34:03Z</time><type>walk_back</type></trkpt>
    <trkpt lat="42.349822" lon="-71.078355"><time>2026-09-15T14:34:04Z</time><type>walk_back</type></trkpt>
    <trkpt lat="42.349831" lon="-71.078321"><time>2026-09-15T14:34:05Z</time><type>walk_back</type></trkpt>
    <trkpt lat="42.349841" lon="-71.078287"><time>2026-09-15T14:34:06Z</time><type>walk_back</type></trkpt>
    <trkpt lat="42.349850" lon="-71.078253"><time>2026-09-15T14:34:07Z</time><type>walk_back</type></trkpt>
    <trkpt lat="42.349859" lon="-71.078218"><time>2026-09-15T14:34:08Z</time><type>walk_back</type></trkpt>
    <trkpt lat="42.349869" lon="-71.078184"><time>2026-09-15T14:34:09Z</time><type>walk_back</type></trkpt>
    <trkpt lat="42.349878" lon="-71.078150"><time>2026-09-15T14:34:10Z</time><type>walk_back</type></trkpt>
    <trkpt lat="42.349887" lon="-71.078116"><time>2026-09-15T14:34:11Z</time><type>walk_back</type></trkpt>
    <trkpt lat="42.349896" lon="-71.078081"><time>2026-09-15T14:34:12Z</time><type>walk_back</type></trkpt>
    <trkpt lat="42.349906" lon="-71.078047"><time>2026-09-15T14:34:13Z</time><type>walk_back</type></trkpt>
    <trkpt lat="42.349915" lon="-71.078013"><time>2026-09-15T14:34:14Z</time><type>walk_back</type></trkpt>
    <trkpt lat="42.349924" lon="-71.077979"><time>2026-09-15T14:34:15Z</time><type>walk_back</type></trkpt>
    <trkpt lat="42.349934" lon="-71.077944"><time>2026-09-15T14:34:16Z</time><type>walk_back</type></trkpt>
    <trkpt lat="42.349943" lon="-71.077910"><time>2026-09-15T14:34:17Z</time><type>walk_back</type></trkpt>
    <trkpt lat="42.349952" lon="-71.077876"><time>2026-09-15T14:34:18Z</time><type>walk_back</type></trkpt>
    <trkpt lat="42.349962" lon="-71.077842"><time>2026-09-15T14:34:19Z</time><type>walk_back</type></trkpt>
    <trkpt lat="42.349971" lon="-71.077807"><time>2026-09-15T14:34:20Z</time><type>walk_back</type></trkpt>
    <trkpt lat="42.349980" lon="-71.077773"><time>2026-09-15T14:34:21Z</time><type>walk_back</type></trkpt>
    <trkpt lat="42.349989" lon="-71.077739"><time>2026-09-15T14:34:22Z</time><type>walk_back</type></trkpt>
    <trkpt lat="42.349999" lon="-71.077705"><time>2026-09-15T14:34:23Z</time><type>walk_back</type></trkpt>
    <trkpt lat="42.350008" lon="-71.077670"><time>2026-09-15T14:34:24Z</time><type>walk_back</type></trkpt>
    <trkpt lat="42.350017" lon="-71.077636"><time>2026-09-15T14:34:25Z</time><type>walk_back</type></trkpt>
    <trkpt lat="42.350027" lon="-71.077602"><time>2026-09-15T14:34:26Z</time><type>walk_back</type></trkpt>
    <trkpt lat="42.350036" lon="-71.077568"><time>2026-09-15T14:34:27Z</time><type>walk_back</type></trkpt>
    <trkpt lat="42.350045" lon="-71.077533"><time>2026-09-15T14:34:28Z</time><type>walk_back</type></trkpt>
    <trkpt lat="42.350055" lon="-71.077499"><time>2026-09-15T14:34:29Z</time><type>walk_back</type></trkpt>
    <trkpt lat="42.350064" lon="-71.077465"><time>2026-09-15T14:34:30Z</time><type>walk_back</type></trkpt>
    <trkpt lat="42.350073" lon="-71.077431"><time>2026-09-15T14:34:31Z</time><type>walk_back</type></trkpt>
    <trkpt lat="42.350082" lon="-71.077396"><time>2026-09-15T14:34:32Z</time><type>walk_back</type></trkpt>
    <trkpt lat="42.350092" lon="-71.077362"><time>2026-09-15T14:34:33Z</time><type>walk_back</type></trkpt>
    <trkpt lat="42.350101" lon="-71.077328"><time>2026-09-15T14:34:34Z</time><type>walk_back</type></trkpt>
    <trkpt lat="42.350110" lon="-71.077293"><time>2026-09-15T14:34:35Z</time><type>walk_back</type></trkpt>
    <trkpt lat="42.350120" lon="-71.077259"><time>2026-09-15T14:34:36Z</time><type>walk_back</type></trkpt>
    <trkpt lat="42.350129" lon="-71.077225"><time>2026-09-15T14:34:37Z</time><type>walk_back</type></trkpt>
    <trkpt lat="42.350138" lon="-71.077191"><time>2026-09-15T14:34:38Z</time><type>walk_back</type></trkpt>
    <trkpt lat="42.350148" lon="-71.077156"><time>2026-09-15T14:34:39Z</time><type>walk_back</type></trkpt>
    <trkpt lat="42.350157" lon="-71.077122"><time>2026-09-15T14:34:40Z</time><type>walk_back</type></trkpt>
    <trkpt lat="42.350166" lon="-71.077088"><time>2026-09-15T14:34:41Z</time><type>walk_back</type></trkpt>
    <trkpt lat="42.350175" lon="-71.077054"><time>2026-09-15T14:34:42Z</time><type>walk_back</type></trkpt>
    <trkpt lat="42.350185" lon="-71.077019"><time>2026-09-15T14:34:43Z</time><type>walk_back</type></trkpt>
    <trkpt lat="42.350194" lon="-71.076985"><time>2026-09-15T14:34:44Z</time><type>walk_back</type></trkpt>
    <trkpt lat="42.350203" lon="-71.076951"><time>2026-09-15T14:34:45Z</time><type>walk_back</type></trkpt>
    <trkpt lat="42.350213" lon="-71.076917"><time>2026-09-15T14:34:46Z</time><type>walk_back</type></trkpt>
    <trkpt lat="42.350222" lon="-71.076882"><time>2026-09-15T14:34:47Z</time><type>walk_back</type></trkpt>
    <trkpt lat="42.350231" lon="-71.076848"><time>2026-09-15T14:34:48Z</time><type>walk_back</type></trkpt>
    <trkpt lat="42.350241" lon="-71.076814"><time>2026-09-15T14:34:49Z</time><type>walk_back</type></trkpt>
    <trkpt lat="42.350250" lon="-71.076780"><time>2026-09-15T14:34:50Z</time><type>walk_back</type></trkpt>
    <trkpt lat="42.350259" lon="-71.076745"><time>2026-09-15T14:34:51Z</time><type>walk_back</type></trkpt>
    <trkpt lat="42.350268" lon="-71.076711"><time>2026-09-15T14:34:52Z</time><type>walk_back</type></trkpt>
    <trkpt lat="42.350278" lon="-71.076677"><time>2026-09-15T14:34:53Z</time><type>walk_back</type></trkpt>
    <trkpt lat="42.350287" lon="-71.076643"><time>2026-09-15T14:34:54Z</time><type>walk_back</type></trkpt>
    <trkpt lat="42.350296" lon="-71.076608"><time>2026-09-15T14:34:55Z</time><type>walk_back</type></trkpt>
    <trkpt lat="42.350306" lon="-71.076574"><time>2026-09-15T14:34:56Z</time><type>walk_back</type></trkpt>
    <trkpt lat="42.350315" lon="-71.076540"><time>2026-09-15T14:34:57Z</time><type>walk_back</type></trkpt>
    <trkpt lat="42.350324" lon="-71.076506"><time>2026-09-15T14:34:58Z</time><type>walk_back</type></trkpt>
    <trkpt lat="42.350334" lon="-71.076471"><time>2026-09-15T14:34:59Z</time><type>walk_back</type></trkpt>
    <trkpt lat="42.350343" lon="-71.076437"><time>2026-09-15T14:35:00Z</time><type>walk_back</type></trkpt>
    <trkpt lat="42.350352" lon="-71.076403"><time>2026-09-15T14:35:01Z</time><type>walk_back</type></trkpt>
    <trkpt lat="42.350361" lon="-71.076369"><time>2026-09-15T14:35:02Z</time><type>walk_back</type></trkpt>
    <trkpt lat="42.350371" lon="-71.076334"><time>2026-09-15T14:35:03Z</time><type>walk_back</type></trkpt>
    <trkpt lat="42.350380" lon="-71.076300"><time>2026-09-15T14:35:04Z</time><type>walk_back</type></trkpt>
    <trkpt lat="42.350381" lon="-71.076300"><time>2026-09-15T14:35:05Z</time><type>back</type></trkpt>
    <trkpt lat="42.350379" lon="-71.076300"><time>2026-09-15T14:35:06Z</time><type>back</type></trkpt>
    <trkpt lat="42.350381" lon="-71.076300"><time>2026-09-15T14:35:07Z</time><type>back</type></trkpt>
    <trkpt lat="42.350379" lon="-71.076300"><time>2026-09-15T14:35:08Z</time><type>back</type></trkpt>
    <trkpt lat="42.350381" lon="-71.076300"><time>2026-09-15T14:35:09Z</time><type>back</type></trkpt>
    <trkpt lat="42.350379" lon="-71.076300"><time>2026-09-15T14:35:10Z</time><type>back</type></trkpt>
    <trkpt lat="42.350381" lon="-71.076300"><time>2026-09-15T14:35:11Z</time><type>back</type></trkpt>
    <trkpt lat="42.350379" lon="-71.076300"><time>2026-09-15T14:35:12Z</time><type>back</type></trkpt>
    <trkpt lat="42.350381" lon="-71.076300"><time>2026-09-15T14:35:13Z</time><type>back</type></trkpt>
    <trkpt lat="42.350379" lon="-71.076300"><time>2026-09-15T14:35:14Z</time><type>back</type></trkpt>
  </trkseg></trk>
</gpx>
